{
  "type": "FeatureCollection",
  "features": [
    {
      "type": "Feature",
      "properties": {
        "norad_id": 66549,
        "name": "SHIJIAN-28 (SJ-28)",
        "group": "last-30-days",
        "lat": -0.8217070955163583,
        "lon": 104.4427254626069,
        "alt_km": 35786.118431006165,
        "timestamp": "2025-12-25T16:53:13.369805+00:00",
        "meta_object_name": "SHIJIAN-28 (SJ-28)",
        "meta_object_id": "2025-277A",
        "meta_epoch": "2025-12-24T22:54:51.916320",
        "meta_mean_motion": 1.00265231,
        "meta_eccentricity": 9.989e-05,
        "meta_inclination": 4.9886,
        "meta_ra_of_asc_node": 274.7645,
        "meta_arg_of_pericenter": 128.3669,
        "meta_mean_anomaly": 151.0393,
        "meta_ephemeris_type": 0,
        "meta_classification_type": "U",
        "meta_norad_cat_id": 66549,
        "meta_element_set_no": 999,
        "meta_rev_at_epoch": 40,
        "meta_bstar": 0,
        "meta_mean_motion_dot": -3.37e-06,
        "meta_mean_motion_ddot": 0,
        "tle_line1": "1 66549U 25277A   25358.95476755 -.00000337  00000+0  00000+0 0  9996",
        "tle_line2": "2 66549   4.9886 274.7645 0000998 128.3669 151.0393  1.00265231   409"
      },
      "geometry": {
        "type": "Point",
        "coordinates": [
          104.4427254626069,
          -0.8217070955163583
        ]
      }
    },
    {
      "type": "Feature",
      "properties": {
        "norad_id": 66550,
        "name": "CZ-7A R/B",
        "group": "last-30-days",
        "lat": -13.489202454421786,
        "lon": 151.91574177558306,
        "alt_km": 1031.95801774744,
        "timestamp": "2025-12-25T16:53:13.369855+00:00",
        "meta_object_name": "CZ-7A R/B",
        "meta_object_id": "2025-277B",
        "meta_epoch": "2025-12-23T05:53:12.433056",
        "meta_mean_motion": 3.27661077,
        "meta_eccentricity": 0.66094342,
        "meta_inclination": 14.3426,
        "meta_ra_of_asc_node": 263.9223,
        "meta_arg_of_pericenter": 200.4471,
        "meta_mean_anomaly": 110.5172,
        "meta_ephemeris_type": 0,
        "meta_classification_type": "U",
        "meta_norad_cat_id": 66550,
        "meta_element_set_no": 999,
        "meta_rev_at_epoch": 65,
        "meta_bstar": 0.0068493476,
        "meta_mean_motion_dot": 0.10979967,
        "meta_mean_motion_ddot": 1.8894821e-05,
        "tle_line1": "1 66550U 25277B   25357.24528279  .10979967  18895-4  68493-2 0  9991",
        "tle_line2": "2 66550  14.3426 263.9223 6609434 200.4471 110.5172  3.27661077   658"
      },
      "geometry": {
        "type": "Point",
        "coordinates": [
          151.91574177558306,
          -13.489202454421786
        ]
      }
    },
    {
      "type": "Feature",
      "properties": {
        "norad_id": 66554,
        "name": "GLOBAL-33",
        "group": "last-30-days",
        "lat": -6.0534563815981235,
        "lon": -24.61638190006818,
        "alt_km": 474.14067710419476,
        "timestamp": "2025-12-25T16:53:13.369902+00:00",
        "meta_object_name": "GLOBAL-33",
        "meta_object_id": "2025-267A",
        "meta_epoch": "2025-12-25T07:32:13.987392",
        "meta_mean_motion": 15.31757691,
        "meta_eccentricity": 0.00047499,
        "meta_inclination": 42.0212,
        "meta_ra_of_asc_node": 344.3976,
        "meta_arg_of_pericenter": 179.4809,
        "meta_mean_anomaly": 180.6034,
        "meta_ephemeris_type": 0,
        "meta_classification_type": "U",
        "meta_norad_cat_id": 66554,
        "meta_element_set_no": 999,
        "meta_rev_at_epoch": 533,
        "meta_bstar": 0.00047768001,
        "meta_mean_motion_dot": 0.00014746,
        "meta_mean_motion_ddot": 0,
        "tle_line1": "1 66554U 25267A   25359.31405078  .00014746  00000+0  47768-3 0  9996",
        "tle_line2": "2 66554  42.0212 344.3976 0004749 179.4809 180.6034 15.31757691  5335"
      },
      "geometry": {
        "type": "Point",
        "coordinates": [
          -24.61638190006818,
          -6.0534563815981235
        ]
      }
    },
    {
      "type": "Feature",
      "properties": {
        "norad_id": 66557,
        "name": "STARLINK-35699",
        "group": "last-30-days",
        "lat": 4.460332963896629,
        "lon": -139.37105782334743,
        "alt_km": 451.3683819634607,
        "timestamp": "2025-12-25T16:53:13.369932+00:00",
        "meta_object_name": "STARLINK-35699",
        "meta_object_id": "2025-268A",
        "meta_epoch": "2025-12-25T08:00:01.000224",
        "meta_mean_motion": 15.39606454,
        "meta_eccentricity": 8.345e-05,
        "meta_inclination": 43.0005,
        "meta_ra_of_asc_node": 47.5588,
        "meta_arg_of_pericenter": 283.0922,
        "meta_mean_anomaly": 356.5921,
        "meta_ephemeris_type": 0,
        "meta_classification_type": "U",
        "meta_norad_cat_id": 66557,
        "meta_element_set_no": 999,
        "meta_rev_at_epoch": 608,
        "meta_bstar": -0.054354923,
        "meta_mean_motion_dot": -0.0195463,
        "meta_mean_motion_ddot": 0,
        "tle_line1": "1 66557U 25268A   25359.33334491 -.01954630  00000+0 -54355-1 0  9998",
        "tle_line2": "2 66557  43.0005  47.5588 0000834 283.0922 356.5921 15.39606454  6089"
      },
      "geometry": {
        "type": "Point",
        "coordinates": [
          -139.37105782334743,
          4.460332963896629
        ]
      }
    },
    {
      "type": "Feature",
      "properties": {
        "norad_id": 66558,
        "name": "STARLINK-35695",
        "group": "last-30-days",
        "lat": -5.059025940473325,
        "lon": -129.1497684518186,
        "alt_km": 449.9560641888629,
        "timestamp": "2025-12-25T16:53:13.369951+00:00",
        "meta_object_name": "STARLINK-35695",
        "meta_object_id": "2025-268B",
        "meta_epoch": "2025-12-25T08:00:01.000224",
        "meta_mean_motion": 15.40463843,
        "meta_eccentricity": 0.00011172,
        "meta_inclination": 42.9994,
        "meta_ra_of_asc_node": 47.5296,
        "meta_arg_of_pericenter": 266.5633,
        "meta_mean_anomaly": 25.9924,
        "meta_ephemeris_type": 0,
        "meta_classification_type": "U",
        "meta_norad_cat_id": 66558,
        "meta_element_set_no": 999,
        "meta_rev_at_epoch": 608,
        "meta_bstar": -0.054556769,
        "meta_mean_motion_dot": -0.02011892,
        "meta_mean_motion_ddot": 0,
        "tle_line1": "1 66558U 25268B   25359.33334491 -.02011892  00000+0 -54557-1 0  9998",
        "tle_line2": "2 66558  42.9994  47.5296 0001117 266.5633  25.9924 15.40463843  6086"
      },
      "geometry": {
        "type": "Point",
        "coordinates": [
          -129.1497684518186,
          -5.059025940473325
        ]
      }
    },
    {
      "type": "Feature",
      "properties": {
        "norad_id": 66559,
        "name": "STARLINK-35419",
        "group": "last-30-days",
        "lat": -40.15684297198709,
        "lon": -69.86978605986546,
        "alt_km": 436.98640025157965,
        "timestamp": "2025-12-25T16:53:13.369963+00:00",
        "meta_object_name": "STARLINK-35419",
        "meta_object_id": "2025-268C",
        "meta_epoch": "2025-12-25T08:00:01.000224",
        "meta_mean_motion": 15.45628572,
        "meta_eccentricity": 0.00011551,
        "meta_inclination": 43.0001,
        "meta_ra_of_asc_node": 47.3898,
        "meta_arg_of_pericenter": 267.4504,
        "meta_mean_anomaly": 81.9339,
        "meta_ephemeris_type": 0,
        "meta_classification_type": "U",
        "meta_norad_cat_id": 66559,
        "meta_element_set_no": 999,
        "meta_rev_at_epoch": 608,
        "meta_bstar": -0.047768437,
        "meta_mean_motion_dot": -0.02090383,
        "meta_mean_motion_ddot": 0,
        "tle_line1": "1 66559U 25268C   25359.33334491 -.02090383  00000+0 -47768-1 0  9997",
        "tle_line2": "2 66559  43.0001  47.3898 0001155 267.4504  81.9339 15.45628572  6082"
      },
      "geometry": {
        "type": "Point",
        "coordinates": [
          -69.86978605986546,
          -40.15684297198709
        ]
      }
    },
    {
      "type": "Feature",
      "properties": {
        "norad_id": 66560,
        "name": "STARLINK-35411",
        "group": "last-30-days",
        "lat": -41.856692874084224,
        "lon": -60.7517954520139,
        "alt_km": 435.4432200253632,
        "timestamp": "2025-12-25T16:53:13.369975+00:00",
        "meta_object_name": "STARLINK-35411",
        "meta_object_id": "2025-268D",
        "meta_epoch": "2025-12-25T08:00:01.000224",
        "meta_mean_motion": 15.46146564,
        "meta_eccentricity": 0.00011402,
        "meta_inclination": 43.0009,
        "meta_ra_of_asc_node": 47.3742,
        "meta_arg_of_pericenter": 272.443,
        "meta_mean_anomaly": 83.3339,
        "meta_ephemeris_type": 0,
        "meta_classification_type": "U",
        "meta_norad_cat_id": 66560,
        "meta_element_set_no": 999,
        "meta_rev_at_epoch": 608,
        "meta_bstar": -0.046005675,
        "meta_mean_motion_dot": -0.02054309,
        "meta_mean_motion_ddot": 0,
        "tle_line1": "1 66560U 25268D   25359.33334491 -.02054309  00000+0 -46006-1 0  9991",
        "tle_line2": "2 66560  43.0009  47.3742 0001140 272.4430  83.3339 15.46146564  6081"
      },
      "geometry": {
        "type": "Point",
        "coordinates": [
          -60.7517954520139,
          -41.856692874084224
        ]
      }
    }
  ]
}